[{"OBJECT_NAME":"STARLINK-34441","OBJECT_ID":"2025-129U","EPOCH":"2026-03-09T11:15:56.881440","MEAN_MOTION":14.98328651,"ECCENTRICITY":0.00031971,"INCLINATION":70.0024,"RA_OF_ASC_NODE":75.0399,"ARG_OF_PERICENTER":278.1591,"MEAN_ANOMALY":81.9206,"EPHEMERIS_TYPE":0,"CLASSIFICATION_TYPE":"U","NORAD_CAT_ID":64430,"ELEMENT_SET_NO":999,"REV_AT_EPOCH":4125,"BSTAR":0.00010432596,"MEAN_MOTION_DOT":1.152e-5,"MEAN_MOTION_DDOT":0},{"OBJECT_NAME":"FENGYUN 1C DEB","OBJECT_ID":"1999-025MT","EPOCH":"2026-03-09T21:02:02.442624","MEAN_MOTION":14.74130884,"ECCENTRICITY":0.01136959,"INCLINATION":98.7454,"RA_OF_ASC_NODE":163.3635,"ARG_OF_PERICENTER":282.2255,"MEAN_ANOMALY":202.4233,"EPHEMERIS_TYPE":0,"CLASSIFICATION_TYPE":"U","NORAD_CAT_ID":30018,"ELEMENT_SET_NO":999,"REV_AT_EPOCH":1720,"BSTAR":0.00065605178,"MEAN_MOTION_DOT":4.733e-5,"MEAN_MOTION_DDOT":0}]
